0 SL-8 R/B
1 21090U 91007B   13283.17292501  .00000042  00000-0  27545-4 0  7927
2 21090 082.9231 160.7847 0020544 191.3975 168.6720 13.76213019138849
0 SL-8 R/B
1 21090U 91007B   13285.79028132  .00000050  00000-0  36094-4 0  7944
2 21090 082.9226 158.8369 0020715 184.0432 176.0560 13.76212771139207
0 SL-8 R/B
1 21090U 91007B   13286.80814231  .00000047  00000-0  32813-4 0  7952
2 21090 082.9224 158.0794 0020779 181.2321 178.8788 13.76212797139340
0 SL-8 R/B
1 21090U 91007B   13287.82600325  .00000045  00000-0  30762-4 0  7962
2 21090 082.9221 157.3220 0020845 178.4380 181.6846 13.76212888139483
0 SL-8 R/B
1 21090U 91007B   13289.13468164  .00000033  00000-0  18450-4 0  7979
2 21090 082.9217 156.3480 0020947 174.9445 185.1927 13.76213061139664
0 SL-8 R/B
1 21090U 91007B   13290.15254254  .00000028  00000-0  13291-4 0  7989
2 21090 082.9215 155.5905 0021005 172.1638 187.9851 13.76213251139808
0 SL-8 R/B
1 21090U 91007B   13291.17040338  .00000019  00000-0  36035-5 0  7991
2 21090 082.9214 154.8328 0021076 169.3065 190.8544 13.76213349139943
0 SL-8 R/B
1 21090U 91007B   13292.18826407  .00000013  00000-0 -21028-5 0  8006
2 21090 082.9213 154.0752 0021151 166.4899 193.6829 13.76213397140089
0 SL-8 R/B
1 21090U 91007B   13293.35153341  .00000001  00000-0 -14657-4 0  8013
2 21090 082.9214 153.2094 0021215 163.2188 196.9675 13.76213328140244
0 SL-8 R/B
1 21090U 91007B   13294.73291534  .00000007  00000-0 -87056-5 0  8024
2 21090 082.9213 152.1812 0021282 159.6399 200.5611 13.76213321140432
0 SL-8 R/B
1 21090U 91007B   13296.18700184  .00000010  00000-0 -54774-5 0  8037
2 21090 082.9212 151.0989 0021364 155.6673 204.5497 13.76213152140636
